{
  "type": "FeatureCollection",
  "features": [
    {
      "type": "Feature",
      "properties": {
        "norad_id": 66983,
        "name": "STARLINK-36145",
        "group": "last-30-days",
        "lat": -9.29676100792564,
        "lon": 116.80293502418678,
        "alt_km": 319.2213929852214,
        "timestamp": "2025-12-19T06:59:42.652774+00:00",
        "meta_object_name": "STARLINK-36145",
        "meta_object_id": "2025-288AA",
        "meta_epoch": "2025-12-18T22:00:00.999936",
        "meta_mean_motion": 15.85272811,
        "meta_eccentricity": 0.00019408,
        "meta_inclination": 43.0015,
        "meta_ra_of_asc_node": 129.2271,
        "meta_arg_of_pericenter": 281.217,
        "meta_mean_anomaly": 84.4284,
        "meta_ephemeris_type": 0,
        "meta_classification_type": "U",
        "meta_norad_cat_id": 66983,
        "meta_element_set_no": 999,
        "meta_rev_at_epoch": 282,
        "meta_bstar": -0.0068377006,
        "meta_mean_motion_dot": -0.01488161,
        "meta_mean_motion_ddot": 0,
        "tle_line1": "1 66983U 25288AA  25352.91667824 -.01488161  00000+0 -68377-2 0  9990",
        "tle_line2": "2 66983  43.0015 129.2271 0001940 281.2170  84.4284 15.85272811  2828"
      },
      "geometry": {
        "type": "Point",
        "coordinates": [
          116.80293502418678,
          -9.29676100792564
        ]
      }
    },
    {
      "type": "Feature",
      "properties": {
        "norad_id": 66984,
        "name": "STARLINK-35591",
        "group": "last-30-days",
        "lat": -10.799722172357058,
        "lon": 115.1134352542364,
        "alt_km": 319.4756219263054,
        "timestamp": "2025-12-19T06:59:42.652784+00:00",
        "meta_object_name": "STARLINK-35591",
        "meta_object_id": "2025-288AB",
        "meta_epoch": "2025-12-18T22:00:00.999936",
        "meta_mean_motion": 15.85264771,
        "meta_eccentricity": 0.00018442,
        "meta_inclination": 43.0014,
        "meta_ra_of_asc_node": 129.2322,
        "meta_arg_of_pericenter": 277.0141,
        "meta_mean_anomaly": 86.3923,
        "meta_ephemeris_type": 0,
        "meta_classification_type": "U",
        "meta_norad_cat_id": 66984,
        "meta_element_set_no": 999,
        "meta_rev_at_epoch": 282,
        "meta_bstar": -0.0068062749,
        "meta_mean_motion_dot": -0.01481518,
        "meta_mean_motion_ddot": 0,
        "tle_line1": "1 66984U 25288AB  25352.91667824 -.01481518  00000+0 -68063-2 0  9992",
        "tle_line2": "2 66984  43.0014 129.2322 0001844 277.0141  86.3923 15.85264771  2826"
      },
      "geometry": {
        "type": "Point",
        "coordinates": [
          115.1134352542364,
          -10.799722172357058
        ]
      }
    },
    {
      "type": "Feature",
      "properties": {
        "norad_id": 66985,
        "name": "STARLINK-36103",
        "group": "last-30-days",
        "lat": -7.699621381069201,
        "lon": 118.57221660070029,
        "alt_km": 319.193666543516,
        "timestamp": "2025-12-19T06:59:42.652794+00:00",
        "meta_object_name": "STARLINK-36103",
        "meta_object_id": "2025-288AC",
        "meta_epoch": "2025-12-18T22:00:00.999936",
        "meta_mean_motion": 15.85273683,
        "meta_eccentricity": 0.00017303,
        "meta_inclination": 43.0016,
        "meta_ra_of_asc_node": 129.221,
        "meta_arg_of_pericenter": 280.7396,
        "meta_mean_anomaly": 87.2868,
        "meta_ephemeris_type": 0,
        "meta_classification_type": "U",
        "meta_norad_cat_id": 66985,
        "meta_element_set_no": 999,
        "meta_rev_at_epoch": 282,
        "meta_bstar": -0.0068914585,
        "meta_mean_motion_dot": -0.01498386,
        "meta_mean_motion_ddot": 0,
        "tle_line1": "1 66985U 25288AC  25352.91667824 -.01498386  00000+0 -68915-2 0  9990",
        "tle_line2": "2 66985  43.0016 129.2210 0001730 280.7396  87.2868 15.85273683  2822"
      },
      "geometry": {
        "type": "Point",
        "coordinates": [
          118.57221660070029,
          -7.699621381069201
        ]
      }
    },
    {
      "type": "Feature",
      "properties": {
        "norad_id": 66986,
        "name": "STARLINK-36135",
        "group": "last-30-days",
        "lat": -6.091632091973108,
        "lon": 120.33125476793467,
        "alt_km": 319.1339347833846,
        "timestamp": "2025-12-19T06:59:42.652804+00:00",
        "meta_object_name": "STARLINK-36135",
        "meta_object_id": "2025-288AD",
        "meta_epoch": "2025-12-18T22:00:00.999936",
        "meta_mean_motion": 15.85271924,
        "meta_eccentricity": 0.00018235,
        "meta_inclination": 43.0013,
        "meta_ra_of_asc_node": 129.2142,
        "meta_arg_of_pericenter": 277.8237,
        "meta_mean_anomaly": 92.5871,
        "meta_ephemeris_type": 0,
        "meta_classification_type": "U",
        "meta_norad_cat_id": 66986,
        "meta_element_set_no": 999,
        "meta_rev_at_epoch": 282,
        "meta_bstar": -0.0069323676,
        "meta_mean_motion_dot": -0.01506196,
        "meta_mean_motion_ddot": 0,
        "tle_line1": "1 66986U 25288AD  25352.91667824 -.01506196  00000+0 -69324-2 0  9995",
        "tle_line2": "2 66986  43.0013 129.2142 0001823 277.8237  92.5871 15.85271924  2827"
      },
      "geometry": {
        "type": "Point",
        "coordinates": [
          120.33125476793467,
          -6.091632091973108
        ]
      }
    },
    {
      "type": "Feature",
      "properties": {
        "norad_id": 66987,
        "name": "STARLINK-36147",
        "group": "last-30-days",
        "lat": -4.590365185929752,
        "lon": 121.9598424779101,
        "alt_km": 318.9060827813337,
        "timestamp": "2025-12-19T06:59:42.652816+00:00",
        "meta_object_name": "STARLINK-36147",
        "meta_object_id": "2025-288AE",
        "meta_epoch": "2025-12-18T22:00:00.999936",
        "meta_mean_motion": 15.85283282,
        "meta_eccentricity": 0.00016616,
        "meta_inclination": 43.0018,
        "meta_ra_of_asc_node": 129.2092,
        "meta_arg_of_pericenter": 283.2963,
        "meta_mean_anomaly": 89.3226,
        "meta_ephemeris_type": 0,
        "meta_classification_type": "U",
        "meta_norad_cat_id": 66987,
        "meta_element_set_no": 999,
        "meta_rev_at_epoch": 282,
        "meta_bstar": -0.0069907737,
        "meta_mean_motion_dot": -0.01517997,
        "meta_mean_motion_ddot": 0,
        "tle_line1": "1 66987U 25288AE  25352.91667824 -.01517997  00000+0 -69908-2 0  9995",
        "tle_line2": "2 66987  43.0018 129.2092 0001661 283.2963  89.3226 15.85283282  2822"
      },
      "geometry": {
        "type": "Point",
        "coordinates": [
          121.9598424779101,
          -4.590365185929752
        ]
      }
    },
    {
      "type": "Feature",
      "properties": {
        "norad_id": 66988,
        "name": "YAOGAN-47",
        "group": "last-30-days",
        "lat": -75.6302494908116,
        "lon": -152.64648733388515,
        "alt_km": 504.0056064524024,
        "timestamp": "2025-12-19T06:59:42.652828+00:00",
        "meta_object_name": "YAOGAN-47",
        "meta_object_id": "2025-289A",
        "meta_epoch": "2025-12-15T02:32:19.481856",
        "meta_mean_motion": 15.23184629,
        "meta_eccentricity": 7.87e-05,
        "meta_inclination": 97.5271,
        "meta_ra_of_asc_node": 54.2297,
        "meta_arg_of_pericenter": 67.3408,
        "meta_mean_anomaly": 292.7912,
        "meta_ephemeris_type": 0,
        "meta_classification_type": "U",
        "meta_norad_cat_id": 66988,
        "meta_element_set_no": 999,
        "meta_rev_at_epoch": 90,
        "meta_bstar": 0.00011849353,
        "meta_mean_motion_dot": 2.729e-05,
        "meta_mean_motion_ddot": 0,
        "tle_line1": "1 66988U 25289A   25349.10578104  .00002729  00000+0  11849-3 0  9997",
        "tle_line2": "2 66988  97.5271  54.2297 0000787  67.3408 292.7912 15.23184629   901"
      },
      "geometry": {
        "type": "Point",
        "coordinates": [
          -152.64648733388515,
          -75.6302494908116
        ]
      }
    },
    {
      "type": "Feature",
      "properties": {
        "norad_id": 66989,
        "name": "CZ-4B R/B",
        "group": "last-30-days",
        "lat": 44.2142451711829,
        "lon": 51.7221647796468,
        "alt_km": 319.02811391633895,
        "timestamp": "2025-12-19T06:59:42.652839+00:00",
        "meta_object_name": "CZ-4B R/B",
        "meta_object_id": "2025-289B",
        "meta_epoch": "2025-12-18T21:37:25.890240",
        "meta_mean_motion": 15.68705521,
        "meta_eccentricity": 0.01442978,
        "meta_inclination": 97.5257,
        "meta_ra_of_asc_node": 58.6931,
        "meta_arg_of_pericenter": 339.6073,
        "meta_mean_anomaly": 19.9461,
        "meta_ephemeris_type": 0,
        "meta_classification_type": "U",
        "meta_norad_cat_id": 66989,
        "meta_element_set_no": 999,
        "meta_rev_at_epoch": 153,
        "meta_bstar": 0.0005298262,
        "meta_mean_motion_dot": 0.00109551,
        "meta_mean_motion_ddot": 5.679864e-06,
        "tle_line1": "1 66989U 25289B   25352.90099410  .00109551  56799-5  52983-3 0  9995",
        "tle_line2": "2 66989  97.5257  58.6931 0144297 339.6073  19.9461 15.68705521  1534"
      },
      "geometry": {
        "type": "Point",
        "coordinates": [
          51.7221647796468,
          44.2142451711829
        ]
      }
    }
  ]
}